[{"OBJECT_NAME":"CYGFM02","OBJECT_ID":"2016-078C","EPOCH":"2026-03-09T15:36:50.817024","MEAN_MOTION":15.57922145,"ECCENTRICITY":0.00067337,"INCLINATION":34.9409,"RA_OF_ASC_NODE":166.5135,"ARG_OF_PERICENTER":321.9691,"MEAN_ANOMALY":38.0558,"EPHEMERIS_TYPE":0,"CLASSIFICATION_TYPE":"U","NORAD_CAT_ID":41886,"ELEMENT_SET_NO":999,"REV_AT_EPOCH":51360,"BSTAR":0.00045552305,"MEAN_MOTION_DOT":0.00035326,"MEAN_MOTION_DDOT":0},{"OBJECT_NAME":"STARLINK-2128","OBJECT_ID":"2021-005BH","EPOCH":"2026-03-09T22:00:01.999584","MEAN_MOTION":15.60188382,"ECCENTRICITY":0.00044922,"INCLINATION":53.0533,"RA_OF_ASC_NODE":14.9701,"ARG_OF_PERICENTER":123.8508,"MEAN_ANOMALY":68.763,"EPHEMERIS_TYPE":0,"CLASSIFICATION_TYPE":"U","NORAD_CAT_ID":47404,"ELEMENT_SET_NO":999,"REV_AT_EPOCH":592,"BSTAR":0.0018166988,"MEAN_MOTION_DOT":0.00153048,"MEAN_MOTION_DDOT":0}]
